QIANFAN-25              
1 61558U 24185G   25222.58967757  .00000323  00000+0  18933-3 0  9996
2 61558  88.9770  92.2603 0006765 352.5106   7.5974 14.05757858 52069
QIANFAN-26              
1 61559U 24185H   25222.63114082  .00000199  00000+0  18657-3 0  9992
2 61559  88.9785  93.1639 0007224  40.3725 319.7976 13.77723867 51582
QIANFAN-27              
1 61560U 24185J   25222.58156017  .00000424  00000+0  16785-3 0  9993
2 61560  88.9776  91.5191 0007935 354.1564   5.9536 14.27129794 52453
QIANFAN-28              
1 61561U 24185K   25222.61816485  .00000699  00000+0  27755-3 0  9993
2 61561  88.9793  91.5089 0007004 357.0441   3.0710 14.27694760 52466
QIANFAN-29              
1 61562U 24185L   25222.60722639  .00000173  00000+0  24996-3 0  9991
2 61562  88.9781  94.1542 0011938  55.1610 305.0662 13.50958150 51036
QIANFAN-30              
1 61563U 24185M   25222.63631335  .00000157  00000+0  22801-3 0  9992
2 61563  88.9785  93.6298 0009126  43.8695 316.3179 13.49930159 51323
QIANFAN-31              
1 61564U 24185N   25222.59608623  .00000134  00000+0  16950-3 0  9995
2 61564  88.9768  93.6326 0008786  42.6117 317.5718 13.57906591 51317
QIANFAN-32              
1 61565U 24185P   25222.59957872  .00000123  00000+0  17242-3 0  9992
2 61565  88.9829  93.7303 0011400  64.1062 296.1263 13.50684382 51284
